GPS BIIF-11             
1 41019U 15062A   26093.49069273 -.00000091  00000+0  00000+0 0  9998
2 41019  56.9127  33.6891 0111291 231.5972 127.3862  2.00567162 76338
ELEKTRO-L 2             
1 41105U 15074A   26093.74548235 -.00000116  00000+0  00000+0 0  9993
2 41105   6.5084  71.4277 0002654 257.1473 117.3865  1.00272274 37769
GSAT0209 (GALILEO 12)   
1 41174U 15079A   26092.95596920  .00000032  00000+0  00000+0 0  9996
2 41174  55.7797 103.3236 0005514 325.8217  34.1781  1.70474345 63491
GSAT0208 (GALILEO 11)   
1 41175U 15079B   26093.17621361  .00000031  00000+0  00000+0 0  9999
2 41175  55.7782 103.3145 0004973 327.5574  32.4460  1.70474211 63912
GPS BIIF-12             
1 41328U 16007A   26094.07596459  .00000004  00000+0  00000+0 0  9990
2 41328  55.4769  92.3961 0095976 246.7228 112.2751  2.00555347 74352
GSAT0211 (GALILEO 14)   
1 41549U 16030A   26093.30022921 -.00000013  00000+0  00000+0 0  9995
2 41549  55.1198 223.7527 0002895  14.9392 345.0192  1.70474106 61397
GSAT0210 (GALILEO 13)   
1 41550U 16030B   26092.97091301 -.00000015  00000+0  00000+0 0  9999
2 41550  55.1194 223.7598 0002002 214.7034 145.2314  1.70474083 61385
INSAT-3DR               
1 41752U 16054A   26093.90568263 -.00000079  00000+0  00000+0 0  9999
2 41752   0.1268  86.9448 0012130 196.4528 308.8774  1.00273287 35071
GSAT0207 (GALILEO 15)   
1 41859U 16069A   26093.24922366  .00000030  00000+0  00000+0 0  9994
2 41859  55.4504 103.1579 0005781 313.2719  46.7132  1.70474272 58128
GSAT0212 (GALILEO 16)   
1 41860U 16069B   26093.68931691  .00000029  00000+0  00000+0 0  9993
2 41860  55.4479 103.1408 0004375 336.8116  23.1994  1.70474500 58389
GSAT0213 (GALILEO 17)   
1 41861U 16069C   26088.19090007  .00000042  00000+0  00000+0 0  9996
2 41861  55.4467 103.3008 0005672 296.7743  63.2211  1.70475393 58159
GSAT0214 (GALILEO 18)   
1 41862U 16069D   26093.61621173  .00000029  00000+0  00000+0 0  9999
2 41862  55.4486 103.1435 0004821 302.5973  57.3873  1.70474606 58377
GOES 16                 
1 41866U 16071A   26094.22681335 -.00000091  00000+0  00000+0 0  9990
2 41866   0.1738  85.2990 0001871 245.6791 198.5207  1.00272227 34361
GSAT-17                 
1 42815U 17040B   26094.12350627 -.00000259  00000+0  00000+0 0  9994
2 42815   0.0660  74.9087 0004142 232.7254  22.7523  1.00273285 32043
GSAT0215 (GALILEO 19)   
1 43055U 17079A   26093.51967058 -.00000012  00000+0  00000+0 0  9994
2 43055  55.0982 223.5595 0000743 277.6028  82.3405  1.70474754 51710
GSAT0216 (GALILEO 20)   
1 43056U 17079B   26092.05111583 -.00000021  00000+0  00000+0 0  9997
2 43056  55.0986 223.5998 0002051 297.7683  62.1536  1.70474829 51709
GSAT0217 (GALILEO 21)   
1 43057U 17079C   26094.03164341 -.00000009  00000+0  00000+0 0  9994
2 43057  55.0959 223.5432 0001888 328.5118  31.4322  1.70474766 51720
